start=new Date('2022-04-07T00:00:00.000Z').valueOf();
sats=[{"GP_ID":"200623990","REV_AT_EPOCH":"6483","MEAN_MOTION":"15.06395169","COUNTRY_CODE":"US","DECAY_DATE":null,"SEMIMAJOR_AXIS":"6925.363","MEAN_MOTION_DOT":"0.00004841","MEAN_ELEMENT_THEORY":"SGP4","EPHEMERIS_TYPE":"0","SITE":"AFETR","RCS_SIZE":"LARGE","TLE_LINE2":"2 47578  53.0552 333.7056 0001522  62.1516 297.9627 15.06395169 64839","ELEMENT_SET_NO":"999","LAUNCH_DATE":"2021-02-04","CENTER_NAME":"EARTH","REF_FRAME":"TEME","NORAD_CAT_ID":"47578","BSTAR":"0.00034372000000","TLE_LINE1":"1 47578U 21009AG  22096.89051253  .00004841  00000-0  34372-3 0  9994","APOAPSIS":"548.282","PERIOD":"95.592","TIME_SYSTEM":"UTC","OBJECT_NAME":"STARLINK-1980","ECCENTRICITY":"0.00015220","EPOCH":"2022-04-06T21:22:20.282592","OBJECT_TYPE":"PAYLOAD","MEAN_MOTION_DDOT":"0.0000000000000","ARG_OF_PERICENTER":"62.1516","OBJECT_ID":"2021-009AG","CLASSIFICATION_TYPE":"U","FILE":"3391320","RA_OF_ASC_NODE":"333.7056","MEAN_ANOMALY":"297.9627","PERIAPSIS":"546.174","INCLINATION":"53.0552"},{"RA_OF_ASC_NODE":"323.4911","MEAN_ANOMALY":"301.2108","PERIAPSIS":"546.101","INCLINATION":"53.0548","OBJECT_ID":"2021-009AH","CLASSIFICATION_TYPE":"U","FILE":"3391320","MEAN_MOTION_DDOT":"0.0000000000000","ARG_OF_PERICENTER":"58.9044","EPOCH":"2022-04-06T22:32:40.189920","OBJECT_TYPE":"PAYLOAD","OBJECT_NAME":"STARLINK-1981","ECCENTRICITY":"0.00016620","APOAPSIS":"548.403","PERIOD":"95.593","TIME_SYSTEM":"UTC","TLE_LINE1":"1 47579U 21009AH  22096.93935405  .00002817  00000-0  20802-3 0  9994","NORAD_CAT_ID":"47579","REF_FRAME":"TEME","BSTAR":"0.00020802000000","TLE_LINE2":"2 47579  53.0548 323.4911 0001662  58.9044 301.2108 15.06387372 64981","ELEMENT_SET_NO":"999","LAUNCH_DATE":"2021-02-04","CENTER_NAME":"EARTH","MEAN_ELEMENT_THEORY":"SGP4","EPHEMERIS_TYPE":"0","SITE":"AFETR","RCS_SIZE":"LARGE","MEAN_MOTION_DOT":"0.00002817","SEMIMAJOR_AXIS":"6925.387","COUNTRY_CODE":"US","DECAY_DATE":null,"MEAN_MOTION":"15.06387372","GP_ID":"200624740","REV_AT_EPOCH":"6498"},{"OBJECT_NAME":"STARLINK-1982","ECCENTRICITY":"0.00016530","TLE_LINE1":"1 47580U 21009AJ  22096.89419413  .00001088  00000-0  91963-4 0  9993","PERIOD":"95.592","APOAPSIS":"548.357","TIME_SYSTEM":"UTC","OBJECT_ID":"2021-009AJ","CLASSIFICATION_TYPE":"U","FILE":"3391320","PERIAPSIS":"546.068","MEAN_ANOMALY":"307.9238","RA_OF_ASC_NODE":"333.6926","INCLINATION":"53.0572","OBJECT_TYPE":"PAYLOAD","EPOCH":"2022-04-06T21:27:38.372832","ARG_OF_PERICENTER":"52.1901","MEAN_MOTION_DDOT":"0.0000000000000","COUNTRY_CODE":"US","DECAY_DATE":null,"SEMIMAJOR_AXIS":"6925.347","GP_ID":"200624992","REV_AT_EPOCH":"6483","MEAN_MOTION":"15.06400377","ELEMENT_SET_NO":"999","TLE_LINE2":"2 47580  53.0572 333.6926 0001653  52.1901 307.9238 15.06400377 64839","CENTER_NAME":"EARTH","LAUNCH_DATE":"2021-02-04","NORAD_CAT_ID":"47580","REF_FRAME":"TEME","BSTAR":"0.00009196300000","MEAN_MOTION_DOT":"0.00001088","SITE":"AFETR","EPHEMERIS_TYPE":"0","MEAN_ELEMENT_THEORY":"SGP4","RCS_SIZE":"LARGE"},{"INCLINATION":"53.0536","MEAN_ANOMALY":"296.1397","PERIAPSIS":"546.178","RA_OF_ASC_NODE":"313.7886","CLASSIFICATION_TYPE":"U","FILE":"3391320","OBJECT_ID":"2021-009AK","ARG_OF_PERICENTER":"63.9748","MEAN_MOTION_DDOT":"0.0000000000000","OBJECT_TYPE":"PAYLOAD","EPOCH":"2022-04-06T20:58:26.992128","ECCENTRICITY":"0.00015170","OBJECT_NAME":"STARLINK-1984","TIME_SYSTEM":"UTC","PERIOD":"95.592","APOAPSIS":"548.279","TLE_LINE1":"1 47581U 21009AK  22096.87392352 -.00000515  00000-0 -15679-4 0  9990","BSTAR":"-0.00001567900000","REF_FRAME":"TEME","NORAD_CAT_ID":"47581","CENTER_NAME":"EARTH","LAUNCH_DATE":"2021-02-04","ELEMENT_SET_NO":"999","TLE_LINE2":"2 47581  53.0536 313.7886 0001517  63.9748 296.1397 15.06395092 65116","RCS_SIZE":"LARGE","SITE":"AFETR","EPHEMERIS_TYPE":"0","MEAN_ELEMENT_THEORY":"SGP4","MEAN_MOTION_DOT":"-0.00000515","SEMIMAJOR_AXIS":"6925.364","DECAY_DATE":null,"COUNTRY_CODE":"US","MEAN_MOTION":"15.06395092","REV_AT_EPOCH":"6511","GP_ID":"200625742"},{"MEAN_MOTION_DOT":"0.00001406","MEAN_ELEMENT_THEORY":"SGP4","EPHEMERIS_TYPE":"0","SITE":"AFETR","RCS_SIZE":"LARGE","TLE_LINE2":"2 47582  53.0559 333.5486 0002215  42.1889 317.9270 15.06395803 64840","ELEMENT_SET_NO":"999","LAUNCH_DATE":"2021-02-04","CENTER_NAME":"EARTH","REF_FRAME":"TEME","NORAD_CAT_ID":"47582","BSTAR":"0.00011333000000","GP_ID":"200624490","REV_AT_EPOCH":"6484","MEAN_MOTION":"15.06395803","COUNTRY_CODE":"US","DECAY_DATE":null,"SEMIMAJOR_AXIS":"6925.361","EPOCH":"2022-04-06T22:15:24.144192","OBJECT_TYPE":"PAYLOAD","ARG_OF_PERICENTER":"42.1889","MEAN_MOTION_DDOT":"0.0000000000000","OBJECT_ID":"2021-009AL","CLASSIFICATION_TYPE":"U","FILE":"3391320","RA_OF_ASC_NODE":"333.5486","PERIAPSIS":"545.692","MEAN_ANOMALY":"317.9270","INCLINATION":"53.0559","TLE_LINE1":"1 47582U 21009AL  22096.92736278  .00001406  00000-0  11333-3 0  9996","APOAPSIS":"548.760","PERIOD":"95.592","TIME_SYSTEM":"UTC","OBJECT_NAME":"STARLINK-1986","ECCENTRICITY":"0.00022150"},{"RCS_SIZE":"LARGE","MEAN_ELEMENT_THEORY":"SGP4","SITE":"AFETR","EPHEMERIS_TYPE":"0","MEAN_MOTION_DOT":"0.00000443","BSTAR":"0.00004863500000","NORAD_CAT_ID":"47583","REF_FRAME":"TEME","LAUNCH_DATE":"2021-02-04","CENTER_NAME":"EARTH","TLE_LINE2":"2 47583  53.0555 333.6358 0001560  63.0901 297.0247 15.06390516 64843","ELEMENT_SET_NO":"999","MEAN_MOTION":"15.06390516","REV_AT_EPOCH":"6484","GP_ID":"200624241","SEMIMAJOR_AXIS":"6925.378","DECAY_DATE":null,"COUNTRY_CODE":"US","MEAN_MOTION_DDOT":"0.0000000000000","ARG_OF_PERICENTER":"63.0901","EPOCH":"2022-04-06T21:43:34.438080","OBJECT_TYPE":"PAYLOAD","INCLINATION":"53.0555","RA_OF_ASC_NODE":"333.6358","MEAN_ANOMALY":"297.0247","PERIAPSIS":"546.162","FILE":"3391320","CLASSIFICATION_TYPE":"U","OBJECT_ID":"2021-009AM","TIME_SYSTEM":"UTC","APOAPSIS":"548.323","PERIOD":"95.593","TLE_LINE1":"1 47583U 21009AM  22096.90525970  .00000443  00000-0  48635-4 0  9996","ECCENTRICITY":"0.00015600","OBJECT_NAME":"STARLINK-1987"},{"REV_AT_EPOCH":"6484","GP_ID":"200625492","MEAN_MOTION":"15.06397767","DECAY_DATE":null,"COUNTRY_CODE":"US","SEMIMAJOR_AXIS":"6925.355","MEAN_MOTION_DOT":"0.00005127","RCS_SIZE":"LARGE","SITE":"AFETR","EPHEMERIS_TYPE":"0","MEAN_ELEMENT_THEORY":"SGP4","CENTER_NAME":"EARTH","LAUNCH_DATE":"2021-02-04","ELEMENT_SET_NO":"999","TLE_LINE2":"2 47585  53.0558 333.5256 0002137  46.9838 313.1329 15.06397767 64840","BSTAR":"0.00036284000000","NORAD_CAT_ID":"47585","REF_FRAME":"TEME","TLE_LINE1":"1 47585U 21009AP  22096.93105644  .00005127  00000-0  36284-3 0  9993","TIME_SYSTEM":"UTC","PERIOD":"95.592","APOAPSIS":"548.700","ECCENTRICITY":"0.00021370","OBJECT_NAME":"STARLINK-1989","OBJECT_TYPE":"PAYLOAD","EPOCH":"2022-04-06T22:20:43.276416","ARG_OF_PERICENTER":"46.9838","MEAN_MOTION_DDOT":"0.0000000000000","FILE":"3391320","CLASSIFICATION_TYPE":"U","OBJECT_ID":"2021-009AP","INCLINATION":"53.0558","PERIAPSIS":"545.740","MEAN_ANOMALY":"313.1329","RA_OF_ASC_NODE":"333.5256"},{"TLE_LINE1":"1 47586U 21009AQ  22096.91446407  .00007377  00000-0  51358-3 0  9995","TIME_SYSTEM":"UTC","APOAPSIS":"548.410","PERIOD":"95.592","ECCENTRICITY":"0.00017470","OBJECT_NAME":"STARLINK-1990","EPOCH":"2022-04-06T21:56:49.695648","OBJECT_TYPE":"PAYLOAD","ARG_OF_PERICENTER":"54.5943","MEAN_MOTION_DDOT":"0.0000000000000","FILE":"3391320","CLASSIFICATION_TYPE":"U","OBJECT_ID":"2021-009AQ","INCLINATION":"53.0559","RA_OF_ASC_NODE":"353.5987","PERIAPSIS":"545.991","MEAN_ANOMALY":"305.5209","REV_AT_EPOCH":"6456","GP_ID":"200625243","MEAN_MOTION":"15.06404283","DECAY_DATE":null,"COUNTRY_CODE":"US","SEMIMAJOR_AXIS":"6925.335","MEAN_MOTION_DOT":"0.00007377","RCS_SIZE":"LARGE","MEAN_ELEMENT_THEORY":"SGP4","SITE":"AFETR","EPHEMERIS_TYPE":"0","LAUNCH_DATE":"2021-02-04","CENTER_NAME":"EARTH","TLE_LINE2":"2 47586  53.0559 353.5987 0001747  54.5943 305.5209 15.06404283 64566","ELEMENT_SET_NO":"999","BSTAR":"0.00051358000000","NORAD_CAT_ID":"47586","REF_FRAME":"TEME"},{"RA_OF_ASC_NODE":"323.6312","PERIAPSIS":"546.013","MEAN_ANOMALY":"290.9372","INCLINATION":"53.0544","OBJECT_ID":"2021-009AR","FILE":"3391320","CLASSIFICATION_TYPE":"U","MEAN_MOTION_DDOT":"0.0000000000000","ARG_OF_PERICENTER":"69.1794","EPOCH":"2022-04-06T21:50:11.748480","OBJECT_TYPE":"PAYLOAD","OBJECT_NAME":"STARLINK-1991","ECCENTRICITY":"0.00016530","APOAPSIS":"548.302","PERIOD":"95.591","TIME_SYSTEM":"UTC","TLE_LINE1":"1 47587U 21009AR  22096.90985820  .00015342  00000-0  10461-2 0  9992","NORAD_CAT_ID":"47587","REF_FRAME":"TEME","BSTAR":"0.00104610000000","TLE_LINE2":"2 47587  53.0544 323.6312 0001653  69.1794 290.9372 15.06418249 64984","ELEMENT_SET_NO":"999","LAUNCH_DATE":"2021-02-04","CENTER_NAME":"EARTH","MEAN_ELEMENT_THEORY":"SGP4","SITE":"AFETR","EPHEMERIS_TYPE":"0","RCS_SIZE":"LARGE","MEAN_MOTION_DOT":"0.00015342","SEMIMAJOR_AXIS":"6925.293","COUNTRY_CODE":"US","DECAY_DATE":null,"MEAN_MOTION":"15.06418249","GP_ID":"200623991","REV_AT_EPOCH":"6498"},{"MEAN_MOTION":"15.06397008","REV_AT_EPOCH":"6484","GP_ID":"200624741","SEMIMAJOR_AXIS":"6925.358","DECAY_DATE":null,"COUNTRY_CODE":"US","RCS_SIZE":"LARGE","SITE":"AFETR","EPHEMERIS_TYPE":"0","MEAN_ELEMENT_THEORY":"SGP4","MEAN_MOTION_DOT":"0.00002490","BSTAR":"0.00018602000000","NORAD_CAT_ID":"47588","REF_FRAME":"TEME","CENTER_NAME":"EARTH","LAUNCH_DATE":"2021-02-04","ELEMENT_SET_NO":"999","TLE_LINE2":"2 47588  53.0546 333.6497 0001714  55.3469 304.7681 15.06397008 64847","TIME_SYSTEM":"UTC","PERIOD":"95.592","APOAPSIS":"548.410","TLE_LINE1":"1 47588U 21009AS  22096.90156098  .00002490  00000-0  18602-3 0  9996","ECCENTRICITY":"0.00017140","OBJECT_NAME":"STARLINK-1993","ARG_OF_PERICENTER":"55.3469","MEAN_MOTION_DDOT":"0.0000000000000","OBJECT_TYPE":"PAYLOAD","EPOCH":"2022-04-06T21:38:14.868672","INCLINATION":"53.0546","MEAN_ANOMALY":"304.7681","PERIAPSIS":"546.036","RA_OF_ASC_NODE":"333.6497","CLASSIFICATION_TYPE":"U","FILE":"3391320","OBJECT_ID":"2021-009AS"}];
